OBJECT_NAME,OBJECT_ID,EPOCH,MEAN_MOTION,ECCENTRICITY,INCLINATION,RA_OF_ASC_NODE,ARG_OF_PERICENTER,MEAN_ANOMALY,EPHEMERIS_TYPE,CLASSIFICATION_TYPE,NORAD_CAT_ID,ELEMENT_SET_NO,REV_AT_EPOCH,BSTAR,MEAN_MOTION_DOT,MEAN_MOTION_DDOT
GSAT-18,2016-060A,2026-06-04T13:54:51.523200,1.00271678,.0005925,0.0281,94.8808,334.2990,106.5564,0,U,41793,999,3540,0,-.65E-6,0
SKY MUSTER 2 (NBN1B),2016-060B,2026-06-04T15:57:40.605120,1.00270210,.0001779,0.0162,314.4967,120.4465,202.3864,0,U,41794,999,3539,0,-.232E-5,0
HIMAWARI-9,2016-064A,2026-06-04T14:57:50.861376,1.00270307,.000154,0.0411,168.7325,312.7214,136.8363,0,U,41836,999,3508,0,-.263E-5,0
SHIJIAN-17 (SJ-17),2016-065A,2026-06-04T14:40:31.649088,0.99853989,.0002103,5.7206,72.7552,19.4633,275.6729,0,U,41838,999,3507,0,-.18E-6,0
GOES 16,2016-071A,2026-06-04T14:46:32.496096,1.00271197,.0000671,0.3081,85.6507,318.5210,325.8678,0,U,41866,999,3497,0,-.79E-6,0
TIANLIAN 1-04,2016-072A,2026-06-04T02:25:19.208064,1.00275065,.00420902,0.8355,83.0574,90.3135,292.3706,0,U,41869,999,3517,0,.44E-6,0
WGS F8 (USA 272),2016-075A,2026-06-04T14:30:02.587968,1.00269361,.0000192,0.0042,359.8845,311.4217,309.0768,0,U,41879,999,3469,0,-.191E-5,0
FENGYUN 4A,2016-077A,2026-06-04T19:43:29.886816,1.00276257,.0008164,2.2915,80.4186,151.5934,80.8564,0,U,41882,999,3480,0,-.345E-5,0
ECHOSTAR 19,2016-079A,2026-06-04T14:48:32.305248,1.00272529,.0001592,0.0176,3.1037,79.8804,295.1243,0,U,41893,999,3457,0,-.127E-5,0
JCSAT-110A (JCSAT-15),2016-082A,2026-06-04T17:05:15.572256,1.00270295,.0000809,0.0023,2.5416,86.3549,170.6416,0,U,41903,999,3463,0,-.339E-5,0
STAR ONE D1,2016-082B,2026-06-04T13:09:48.341952,1.00270199,.0002098,0.0104,33.6588,53.7129,279.0702,0,U,41904,999,3464,0,-.199E-5,0
TJS-2,2017-001A,2026-06-04T18:41:22.048224,1.00272462,.0000784,0.8009,85.4987,10.7395,143.8582,0,U,41911,999,3459,0,.5E-7,0
SBIRS GEO-4 (USA 273),2017-004A,2026-06-04T17:40:36.719904,1.00272921,.0002344,2.2191,42.9336,28.2376,108.0665,0,U,41937,999,3447,0,.135E-5,0
HISPASAT 36W-1,2017-006A,2026-06-04T09:58:04.467072,1.00270898,.0000965,0.0024,101.0876,339.2343,286.0660,0,U,41942,999,3411,0,-.232E-5,0
TELKOM 3S,2017-007A,2026-06-04T16:59:38.757408,1.00271335,.0002514,0.0146,279.3854,157.5076,189.1846,0,U,41944,999,3401,0,-.351E-5,0
INTELSAT 32E (IS-32E),2017-007B,2026-06-04T11:38:44.577024,1.00272952,.0000455,0.0180,347.8046,15.9771,20.6539,0,U,41945,999,3409,0,-.257E-5,0
ECHOSTAR 23,2017-014A,2026-06-04T14:45:02.640096,1.00265386,.0001815,0.0179,356.7911,68.9467,298.6849,0,U,42070,999,3379,0,-.44E-6,0
WGS F9 (USA 275),2017-016A,2026-06-04T15:12:58.336128,1.00272187,.0000476,0.0111,299.2373,136.8333,33.2598,0,U,42075,999,3377,0,-.84E-6,0
SES-10,2017-017A,2026-06-04T13:14:40.374816,1.00272706,.0003032,0.0241,36.0934,45.6340,303.0423,0,U,42432,999,3362,0,-.261E-5,0
CHINASAT 16 (SJ-13),2017-018A,2026-06-04T12:22:32.876256,1.00268678,.0003209,0.1012,93.0486,135.6640,320.3913,0,U,42662,999,3362,0,-.34E-5,0
KOREASAT 7,2017-023A,2026-06-04T16:59:38.757408,1.00275940,.0000675,0.0241,329.6025,59.1220,235.2129,0,U,42691,999,3324,0,-.35E-5,0
SGDC,2017-023B,2026-06-04T12:07:44.019840,1.00270636,.0003133,0.0145,33.6557,50.4843,275.9007,0,U,42692,999,3327,0,-.238E-5,0
GSAT-9,2017-024A,2026-06-04T17:32:45.197088,1.00274287,.0002499,0.0193,283.0030,145.8842,184.7952,0,U,42695,999,3317,0,-.275E-5,0
INMARSAT 5-F4,2017-025A,2026-06-04T12:07:11.847072,1.00270324,.0000216,0.0175,342.7023,92.8394,55.7052,0,U,42698,999,3315,0,.87E-6,0
SES-15,2017-026A,2026-06-04T14:54:01.203264,1.00270523,.0001119,0.0208,330.5745,62.2958,314.5488,0,U,42709,999,730,0,.72E-6,0
QZS-2 (MICHIBIKI-2),2017-028A,2026-06-03T14:37:16.987296,1.00287507,.075959,39.4485,243.3546,269.1264,100.0088,0,U,42738,999,749,0,-.158E-5,0
VIASAT-2,2017-029A,2026-06-04T16:40:52.732128,1.00271233,.0000353,0.0176,292.1747,145.4212,355.8787,0,U,42740,999,3307,0,-.253E-5,0
EUTELSAT 172B,2017-029B,2026-06-04T17:02:01.413312,1.00270285,.0000125,0.0051,79.1495,7.6272,233.8920,0,U,42741,999,3361,0,.6E-7,0
GSAT-19,2017-031A,2026-06-04T18:12:43.564320,1.00270211,.0007094,0.1014,91.5305,347.3411,135.3829,0,U,42747,999,3302,0,.137E-5,0
ECHOSTAR 21,2017-032A,2026-06-04T17:45:40.580928,1.00270267,.0002468,1.7723,354.8753,80.6997,94.3087,0,U,42749,999,3297,0,.77E-6,0
BULGARIASAT-1,2017-038A,2026-06-04T15:16:57.951840,1.00270240,.0003631,0.0629,89.2625,354.4072,40.5538,0,U,42801,999,3272,0,.23E-6,0
HELLAS-SAT 3,2017-040A,2026-06-04T18:01:32.423808,1.00272214,.0004913,0.0495,47.0102,2.1633,153.3974,0,U,42814,999,3268,0,.164E-5,0
