GSAT-18                 
1 41793U 16060A   26155.57976300 -.00000065  00000+0  00000+0 0  9993
2 41793   0.0281  94.8808 0005925 334.2990 106.5564  1.00271678 35406
SKY MUSTER 2 (NBN1B)    
1 41794U 16060B   26155.66505330 -.00000232  00000+0  00000+0 0  9991
2 41794   0.0162 314.4967 0001779 120.4465 202.3864  1.00270210 35394
HIMAWARI-9              
1 41836U 16064A   26155.62350534 -.00000263  00000+0  00000+0 0  9996
2 41836   0.0411 168.7325 0001540 312.7214 136.8363  1.00270307 35088
SHIJIAN-17 (SJ-17)      
1 41838U 16065A   26155.61147742 -.00000018  00000+0  00000+0 0  9991
2 41838   5.7206  72.7552 0002103  19.4633 275.6729  0.99853989 35079
GOES 16                 
1 41866U 16071A   26155.61565389 -.00000079  00000+0  00000+0 0  9997
2 41866   0.3081  85.6507 0000671 318.5210 325.8678  1.00271197 34974
TIANLIAN 1-04           
1 41869U 16072A   26155.10091676  .00000044  00000+0  00000+0 0  9999
2 41869   0.8355  83.0574 0042090  90.3135 292.3706  1.00275065 35175
WGS F8 (USA 272)        
1 41879U 16075A   26155.60419662 -.00000191  00000+0  00000+0 0  9991
2 41879   0.0042 359.8845 0000192 311.4217 309.0768  1.00269361 34693
FENGYUN 4A              
1 41882U 16077A   26155.82187369 -.00000345  00000+0  00000+0 0  9998
2 41882   2.2915  80.4186 0008164 151.5934  80.8564  1.00276257 34804
ECHOSTAR 19             
1 41893U 16079A   26155.61704057 -.00000127  00000+0  00000+0 0  9996
2 41893   0.0176   3.1037 0001592  79.8804 295.1243  1.00272529 34571
JCSAT-110A (JCSAT-15)   
1 41903U 16082A   26155.71198579 -.00000339  00000+0  00000+0 0  9994
2 41903   0.0023   2.5416 0000809  86.3549 170.6416  1.00270295 34631
STAR ONE D1             
1 41904U 16082B   26155.54847618 -.00000199  00000+0  00000+0 0  9995
2 41904   0.0104  33.6588 0002098  53.7129 279.0702  1.00270199 34647
TJS-2                   
1 41911U 17001A   26155.77872741  .00000005  00000+0  00000+0 0  9990
2 41911   0.8009  85.4987 0000784  10.7395 143.8582  1.00272462 34596
SBIRS GEO-4 (USA 273)   
1 41937U 17004A   26155.73653611  .00000135  00000+0  00000+0 0  9994
2 41937   2.2191  42.9336 0002344  28.2376 108.0665  1.00272921 34477
HISPASAT 36W-1          
1 41942U 17006A   26155.41532948 -.00000232  00000+0  00000+0 0  9995
2 41942   0.0024 101.0876 0000965 339.2343 286.0660  1.00270898 34110
TELKOM 3S               
1 41944U 17007A   26155.70808747 -.00000351  00000+0  00000+0 0  9995
2 41944   0.0146 279.3854 0002514 157.5076 189.1846  1.00271335 34013
INTELSAT 32E (IS-32E)   
1 41945U 17007B   26155.48523816 -.00000257  00000+0  00000+0 0  9997
2 41945   0.0180 347.8046 0000455  15.9771  20.6539  1.00272952 34099
ECHOSTAR 23             
1 42070U 17014A   26155.61461389 -.00000044  00000+0  00000+0 0  9990
2 42070   0.0179 356.7911 0001815  68.9467 298.6849  1.00265386 33798
WGS F9 (USA 275)        
1 42075U 17016A   26155.63400852 -.00000084  00000+0  00000+0 0  9991
2 42075   0.0111 299.2373 0000476 136.8333  33.2598  1.00272187 33770
SES-10                  
1 42432U 17017A   26155.55185619 -.00000261  00000+0  00000+0 0  9998
2 42432   0.0241  36.0934 0003032  45.6340 303.0423  1.00272706 33623
CHINASAT 16 (SJ-13)     
1 42662U 17018A   26155.51565829 -.00000340  00000+0  00000+0 0  9993
2 42662   0.1012  93.0486 0003209 135.6640 320.3913  1.00268678 33628
KOREASAT 7              
1 42691U 17023A   26155.70808747 -.00000350  00000+0  00000+0 0  9992
2 42691   0.0241 329.6025 0000675  59.1220 235.2129  1.00275940 33249
SGDC                    
1 42692U 17023B   26155.50537060 -.00000238  00000+0  00000+0 0  9993
2 42692   0.0145  33.6557 0003133  50.4843 275.9007  1.00270636 33278
GSAT-9                  
1 42695U 17024A   26155.73107867 -.00000275  00000+0  00000+0 0  9991
2 42695   0.0193 283.0030 0002499 145.8842 184.7952  1.00274287 33174
INMARSAT 5-F4           
1 42698U 17025A   26155.50499823  .00000087  00000+0  00000+0 0  9996
2 42698   0.0175 342.7023 0000216  92.8394  55.7052  1.00270324 33154
SES-15                  
1 42709U 17026A   26155.62084726  .00000072  00000+0  00000+0 0  9999
2 42709   0.0208 330.5745 0001119  62.2958 314.5488  1.00270523  7308
QZS-2 (MICHIBIKI-2)     
1 42738U 17028A   26154.60922439 -.00000158  00000+0  00000+0 0  9998
2 42738  39.4485 243.3546 0759590 269.1264 100.0088  1.00287507  7498
VIASAT-2                
1 42740U 17029A   26155.69505477 -.00000253  00000+0  00000+0 0  9997
2 42740   0.0176 292.1747 0000353 145.4212 355.8787  1.00271233 33070
EUTELSAT 172B           
1 42741U 17029B   26155.70973858  .00000006  00000+0  00000+0 0  9997
2 42741   0.0051  79.1495 0000125   7.6272 233.8920  1.00270285 33618
GSAT-19                 
1 42747U 17031A   26155.75883755  .00000137  00000+0  00000+0 0  9992
2 42747   0.1014  91.5305 0007094 347.3411 135.3829  1.00270211 33021
ECHOSTAR 21             
1 42749U 17032A   26155.74005302  .00000077  00000+0  00000+0 0  9991
2 42749   1.7723 354.8753 0002468  80.6997  94.3087  1.00270267 32979
BULGARIASAT-1           
1 42801U 17038A   26155.63678185  .00000023  00000+0  00000+0 0  9990
2 42801   0.0629  89.2625 0003631 354.4072  40.5538  1.00270240 32729
HELLAS-SAT 3            
1 42814U 17040A   26155.75106972  .00000164  00000+0  00000+0 0  9996
2 42814   0.0495  47.0102 0004913   2.1633 153.3974  1.00272214 32685
